PERSEUS-M1              
1 40039U 14033AF  26158.80352855  .00002406  00000+0  22194-3 0  9997
2 40039  97.9642 102.7818 0010797 337.2410  22.8330 14.95606924649234
POLYITAN-1              
1 40042U 14033AJ  26159.04517619  .00019032  00000+0  59961-3 0  9994
2 40042  98.0952 184.4437 0007909 168.1396 192.0032 15.32938693652194
TIGRISAT                
1 40043U 14033AK  26159.15501159  .00002433  00000+0  28416-3 0  9997
2 40043  97.7825 309.3746 0050717 104.0252 256.6609 14.85126633644284
AEROCUBE 6A             
1 40045U 14033AM  26159.00633209  .00006838  00000+0  57471-3 0  9991
2 40045  97.7225 326.0535 0039374  48.3680 312.0903 14.98009332645244
AEROCUBE 6B             
1 40046U 14033AN  26159.01762094  .00007460  00000+0  60319-3 0  9995
2 40046  97.7231 325.8341 0039053  40.3592 320.0517 14.99472316645384
CANX-4                  
1 40055U 14034C   26158.96497602  .00001108  00000+0  14930-3 0  9990
2 40055  98.3134  33.9390 0013752  45.0821 315.1504 14.81248580643169
CANX-5                  
1 40056U 14034D   26159.09861706  .00001108  00000+0  14925-3 0  9990
2 40056  98.3136  34.1207 0013746  44.8140 315.4179 14.81266002633996
UKUBE-1                 
1 40074U 14037F   26158.97845145  .00009011  00000+0  50869-3 0  9996
2 40074  98.4241 161.2838 0002064 144.6148 215.5218 15.13407368647160
BRITE-PL2 (HEWELIUSZ)   
1 40119U 14049B   26158.79938014  .00002922  00000+0  27515-3 0  9993
2 40119  97.9088 270.7280 0015142 136.5124 223.7293 14.94563277640049
AEROCUBE 5C             
1 40965U 15058B   26158.78328833  .00003263  00000+0  29173-3 0  9995
2 40965  64.7679 291.8442 0130387  66.9648 294.5152 14.91410167364258
AEROCUBE 7              
1 40966U 15058C   26158.67270441  .00004260  00000+0  34427-3 0  9991
2 40966  64.7628 274.6159 0120113  65.4910 295.8672 14.95665181364533
FOX-1A (AO-85)          
1 40967U 15058D   26158.76074733  .00003179  00000+0  28859-3 0  9998
2 40967  64.7762 308.2774 0129935  60.2802 301.1167 14.90923768112167
SINOD-D 1               
1 40968U 15058E   26158.71865275  .00004342  00000+0  35022-3 0  9996
2 40968  64.7758 288.5630 0118500  56.8567 304.3850 14.95844977115244
SNAP-3 ALICE            
1 40970U 15058G   26159.12925498  .00132025  00000+0  16869-2 0  9996
2 40970  64.7501 135.1931 0030723  17.5046 342.7150 15.58019153115474
LMRST-SAT               
1 40971U 15058H   26159.11621858  .00003092  00000+0  28277-3 0  9997
2 40971  64.7765 303.4934 0131615  62.1648 299.2728 14.90549575112202
SNAP-3 EDDIE            
1 40972U 15058J   26159.19051796  .00100423  00000+0  12325-2 0  9996
2 40972  64.7422 125.7723 0030595  21.6245 338.6184 15.59200283117623
PROPCUBE 3              
1 40973U 15058K   26158.77246674  .00003824  00000+0  32023-3 0  9996
2 40973  64.7694 281.9498 0123617  63.6528 297.7217 14.94205306113398
BISONSAT                
1 40974U 15058L   26158.46848638  .00010253  00000+0  50096-3 0  9995
2 40974  64.7587 205.0602 0078343  51.2611 309.5481 15.15991596114141
SNAP-3 JIMI             
1 40975U 15058M   26158.60303012  .00005594  00000+0  38730-3 0  9997
2 40975  64.7649 250.0943 0105647  59.2946 301.8529 15.02216903112780
PROPCUBE 1 (FLORA)      
1 40976U 15058N   26158.86134574  .00003117  00000+0  29617-3 0  9994
2 40976  64.7759 324.1389 0130344  64.5742 296.8792 14.89178132114877
SINOD-D 3               
1 40977U 15058P   26159.13731123  .00003545  00000+0  30324-3 0  9991
2 40977  64.7736 304.0780 0118853  61.7349 299.5699 14.93957578113406
HORYU-4                 
1 41340U 16012D   26158.66010671  .00317249  00000+0  10211-2 0  9993
2 41340  30.9848 148.6331 0002832 206.9121 153.1392 15.89027763569291
RAVAN                   
1 41849U 16067B   26159.15903899  .00044015  00000+0  68400-3 0  9997
2 41849  97.9898  47.6935 0005734  56.0221 304.1575 15.53810907526295
CELTEE 1                
1 41850U 16067C   26158.59350628  .00006003  00000+0  28566-3 0  9996
2 41850  98.0684  24.5061 0000604  94.7001 265.4301 15.19589092524421
OPTICUBE 04             
1 41851U 16067D   26159.13108258  .00002793  00000+0  17761-3 0  9995
2 41851  98.0712  10.9424 0016428 144.2264 216.0067 15.09621673523802
AEROCUBE 8D             
1 41852U 16067E   26159.16239090  .00006453  00000+0  26754-3 0  9997
2 41852  98.0698  28.6474 0004126 145.6615 214.4887 15.24271394524692
AEROCUBE 8C             
1 41853U 16067F   26159.12321041  .00008660  00000+0  35506-3 0  9999
2 41853  98.0568  25.8445 0006821  93.2259 266.9757 15.24518763524683
CORVUS BC2              
1 42846U 17042X   26159.02733465  .00003387  00000+0  23448-3 0  9995
2 42846  97.4062 320.7350 0014202 138.2076 222.0239 15.06239540485686
CORVUS BC1              
1 42847U 17042Y   26159.02298042  .00003322  00000+0  22909-3 0  9993
2 42847  97.4086 321.5388 0013330 117.0197 243.2393 15.06406941485714
MAKERSAT 0              
1 43016U 17073D   26158.64340437  .00021201  00000+0  58054-3 0  9995
2 43016  97.4640  41.0894 0106135 307.5668  51.5969 15.31756990465009
